{"type": "FeatureCollection", "features": [ {"type": "Feature", "properties": {"norad_id": 41836, "name": "HIMAWARI-9", "group": "weather", "lat": 0.027858073353572772, "lon": 158.22659894666353, "alt_km": 35792.09095610802, "timestamp": "2025-12-23T18:59:31.636850+00:00", "meta": {"OBJECT_NAME": "HIMAWARI-9", "OBJECT_ID": "2016-064A", "EPOCH": "2025-12-22T18:58:13.571040", "MEAN_MOTION": 1.00272669, "ECCENTRICITY": 0.00014802, "INCLINATION": 0.0164, "RA_OF_ASC_NODE": 29.9097, "ARG_OF_PERICENTER": 299.5848, "MEAN_ANOMALY": 187.4267, "EPHEMERIS_TYPE": 0, "CLASSIFICATION_TYPE": "U", "NORAD_CAT_ID": 41836, "ELEMENT_SET_NO": 999, "REV_AT_EPOCH": 3344, "BSTAR": 0, "MEAN_MOTION_DOT": 0, "MEAN_MOTION_DDOT": 0}, "tle": {"line1": "1 41836U 16064A   25356.79043485  .00000000  00000+0  00000+0 0  9998", "line2": "2 41836   0.0164  29.9097 0001480 299.5848 187.4267  1.00272669 33441"}}, "geometry": {"type": "Point", "coordinates": [158.22659894666353, 0.027858073353572772]}}, {"type": "Feature", "properties": {"norad_id": 41866, "name": "GOES 16", "group": "weather", "lat": -0.010447132192506344, "lon": -87.20930467429031, "alt_km": 35773.06408329661, "timestamp": "2025-12-23T18:59:31.636861+00:00", "meta": {"OBJECT_NAME": "GOES 16", "OBJECT_ID": "2016-071A", "EPOCH": "2025-12-23T04:04:30.943776", "MEAN_MOTION": 1.00271912, "ECCENTRICITY": 0.0003084, "INCLINATION": 0.0731, "RA_OF_ASC_NODE": 102.7517, "ARG_OF_PERICENTER": 163.7646, "MEAN_ANOMALY": 141.9111, "EPHEMERIS_TYPE": 0, "CLASSIFICATION_TYPE": "U", "NORAD_CAT_ID": 41866, "ELEMENT_SET_NO": 999, "REV_AT_EPOCH": 3333, "BSTAR": 0, "MEAN_MOTION_DOT": -7e-07, "MEAN_MOTION_DDOT": 0}, "tle": {"line1": "1 41866U 16071A   25357.16980259 -.00000070  00000+0  00000+0 0  9998", "line2": "2 41866   0.0731 102.7517 0003084 163.7646 141.9111  1.00271912 33332"}}, "geometry": {"type": "Point", "coordinates": [-87.20930467429031, -0.010447132192506344]}}, {"type": "Feature", "properties": {"norad_id": 41882, "name": "FENGYUN 4A", "group": "weather", "lat": 1.6217079653961348, "lon": 141.0348268517869, "alt_km": 35786.372853072186, "timestamp": "2025-12-23T18:59:31.636872+00:00", "meta": {"OBJECT_NAME": "FENGYUN 4A", "OBJECT_ID": "2016-077A", "EPOCH": "2025-12-23T08:35:04.981056", "MEAN_MOTION": 1.00264066, "ECCENTRICITY": 0.0004569, "INCLINATION": 1.8742, "RA_OF_ASC_NODE": 82.3014, "ARG_OF_PERICENTER": 143.3346, "MEAN_ANOMALY": 118.943, "EPHEMERIS_TYPE": 0, "CLASSIFICATION_TYPE": "U", "NORAD_CAT_ID": 41882, "ELEMENT_SET_NO": 999, "REV_AT_EPOCH": 3316, "BSTAR": 0, "MEAN_MOTION_DOT": -3.37e-06, "MEAN_MOTION_DDOT": 0}, "tle": {"line1": "1 41882U 16077A   25357.35769654 -.00000337  00000+0  00000+0 0  9993", "line2": "2 41882   1.8742  82.3014 0004569 143.3346 118.9430  1.00264066 33167"}}, "geometry": {"type": "Point", "coordinates": [141.0348268517869, 1.6217079653961348]}}, {"type": "Feature", "properties": {"norad_id": 41884, "name": "CYGFM05", "group": "weather", "lat": 26.843727268101848, "lon": 108.50412143095004, "alt_km": 423.74674837691964, "timestamp": "2025-12-23T18:59:31.636882+00:00", "meta": {"OBJECT_NAME": "CYGFM05", "OBJECT_ID": "2016-078A", "EPOCH": "2025-12-23T04:30:42.842304", "MEAN_MOTION": 15.48011044, "ECCENTRICITY": 0.00107446, "INCLINATION": 34.9607, "RA_OF_ASC_NODE": 338.8623, "ARG_OF_PERICENTER": 273.8559, "MEAN_ANOMALY": 86.0935, "EPHEMERIS_TYPE": 0, "CLASSIFICATION_TYPE": "U", "NORAD_CAT_ID": 41884, "ELEMENT_SET_NO": 999, "REV_AT_EPOCH": 50138, "BSTAR": 0.00038374175, "MEAN_MOTION_DOT": 0.00020735, "MEAN_MOTION_DDOT": 0}, "tle": {"line1": "1 41884U 16078A   25357.18799586  .00020735  00000+0  38374-3 0  9996", "line2": "2 41884  34.9607 338.8623 0010744 273.8559  86.0935 15.48011044501380"}}, "geometry": {"type": "Point", "coordinates": [108.50412143095004, 26.843727268101848]}}, {"type": "Feature", "properties": {"norad_id": 41885, "name": "CYGFM04", "group": "weather", "lat": 30.563027053973165, "lon": 71.59599314293662, "alt_km": 414.9538536422742, "timestamp": "2025-12-23T18:59:31.636891+00:00", "meta": {"OBJECT_NAME": "CYGFM04", "OBJECT_ID": "2016-078B", "EPOCH": "2025-12-23T06:07:44.144256", "MEAN_MOTION": 15.50793567, "ECCENTRICITY": 0.00094497, "INCLINATION": 34.9357, "RA_OF_ASC_NODE": 312.8922, "ARG_OF_PERICENTER": 298.7341, "MEAN_ANOMALY": 61.2431, "EPHEMERIS_TYPE": 0, "CLASSIFICATION_TYPE": "U", "NORAD_CAT_ID": 41885, "ELEMENT_SET_NO": 999, "REV_AT_EPOCH": 50157, "BSTAR": 0.00038886279, "MEAN_MOTION_DOT": 0.00023186, "MEAN_MOTION_DDOT": 0}, "tle": {"line1": "1 41885U 16078B   25357.25537204  .00023186  00000+0  38886-3 0  9993", "line2": "2 41885  34.9357 312.8922 0009449 298.7341  61.2431 15.50793567501579"}}, "geometry": {"type": "Point", "coordinates": [71.59599314293662, 30.563027053973165]}}, {"type": "Feature", "properties": {"norad_id": 41886, "name": "CYGFM02", "group": "weather", "lat": -3.4368653995349243, "lon": 132.4890771159471, "alt_km": 413.1960885244689, "timestamp": "2025-12-23T18:59:31.636900+00:00", "meta": {"OBJECT_NAME": "CYGFM02", "OBJECT_ID": "2016-078C", "EPOCH": "2025-12-23T04:18:07.828128", "MEAN_MOTION": 15.52200124, "ECCENTRICITY": 0.00110647, "INCLINATION": 34.9444, "RA_OF_ASC_NODE": 311.5816, "ARG_OF_PERICENTER": 299.4074, "MEAN_ANOMALY": 60.5544, "EPHEMERIS_TYPE": 0, "CLASSIFICATION_TYPE": "U", "NORAD_CAT_ID": 41886, "ELEMENT_SET_NO": 999, "REV_AT_EPOCH": 50169, "BSTAR": 0.00040176789, "MEAN_MOTION_DOT": 0.00025224, "MEAN_MOTION_DDOT": 0}, "tle": {"line1": "1 41886U 16078C   25357.17925727  .00025224  00000+0  40177-3 0  9997", "line2": "2 41886  34.9444 311.5816 0011064 299.4074  60.5544 15.52200124501696"}}, "geometry": {"type": "Point", "coordinates": [132.4890771159471, -3.4368653995349243]}}, {"type": "Feature", "properties": {"norad_id": 41887, "name": "CYGFM01", "group": "weather", "lat": -8.845624054686493, "lon": 170.06827157036534, "alt_km": 419.03579398425063, "timestamp": "2025-12-23T18:59:31.636910+00:00", "meta": {"OBJECT_NAME": "CYGFM01", "OBJECT_ID": "2016-078D", "EPOCH": "2025-12-23T04:13:36.205536", "MEAN_MOTION": 15.48600258, "ECCENTRICITY": 0.00104718, "INCLINATION": 34.9437, "RA_OF_ASC_NODE": 341.2155, "ARG_OF_PERICENTER": 266.1968, "MEAN_ANOMALY": 93.7556, "EPHEMERIS_TYPE": 0, "CLASSIFICATION_TYPE": "U", "NORAD_CAT_ID": 41887, "ELEMENT_SET_NO": 999, "REV_AT_EPOCH": 50132, "BSTAR": 0.00038375397, "MEAN_MOTION_DOT": 0.00021169, "MEAN_MOTION_DDOT": 0}, "tle": {"line1": "1 41887U 16078D   25357.17611349  .00021169  00000+0  38375-3 0  9991", "line2": "2 41887  34.9437 341.2155 0010471 266.1968  93.7556 15.48600258501327"}}, "geometry": {"type": "Point", "coordinates": [170.06827157036534, -8.845624054686493]}}, {"type": "Feature", "properties": {"norad_id": 41888, "name": "CYGFM08", "group": "weather", "lat": -31.884408333995253, "lon": -102.92242425038341, "alt_km": 411.06767563435096, "timestamp": "2025-12-23T18:59:31.636919+00:00", "meta": {"OBJECT_NAME": "CYGFM08", "OBJECT_ID": "2016-078E", "EPOCH": "2025-12-23T05:22:02.761248", "MEAN_MOTION": 15.49837046, "ECCENTRICITY": 0.00117882, "INCLINATION": 34.9468, "RA_OF_ASC_NODE": 323.7726, "ARG_OF_PERICENTER": 289.5227, "MEAN_ANOMALY": 70.4221, "EPHEMERIS_TYPE": 0, "CLASSIFICATION_TYPE": "U", "NORAD_CAT_ID": 41888, "ELEMENT_SET_NO": 999, "REV_AT_EPOCH": 50156, "BSTAR": 0.00038341627, "MEAN_MOTION_DOT": 0.00022113, "MEAN_MOTION_DDOT": 0}, "tle": {"line1": "1 41888U 16078E   25357.22364307  .00022113  00000+0  38342-3 0  9991", "line2": "2 41888  34.9468 323.7726 0011788 289.5227  70.4221 15.49837046501565"}}, "geometry": {"type": "Point", "coordinates": [-102.92242425038341, -31.884408333995253]}}, {"type": "Feature", "properties": {"norad_id": 41890, "name": "CYGFM07", "group": "weather", "lat": -28.38948948609102, "lon": -101.73534443882151, "alt_km": 410.5556824471669, "timestamp": "2025-12-23T18:59:31.636929+00:00", "meta": {"OBJECT_NAME": "CYGFM07", "OBJECT_ID": "2016-078G", "EPOCH": "2025-12-23T06:52:12.582336", "MEAN_MOTION": 15.50433306, "ECCENTRICITY": 0.00096946, "INCLINATION": 34.9482, "RA_OF_ASC_NODE": 312.2836, "ARG_OF_PERICENTER": 304.5826, "MEAN_ANOMALY": 55.3981, "EPHEMERIS_TYPE": 0, "CLASSIFICATION_TYPE": "U", "NORAD_CAT_ID": 41890, "ELEMENT_SET_NO": 999, "REV_AT_EPOCH": 50159, "BSTAR": 0.00038423067, "MEAN_MOTION_DOT": 0.00022616, "MEAN_MOTION_DDOT": 0}, "tle": {"line1": "1 41890U 16078G   25357.28625674  .00022616  00000+0  38423-3 0  9995", "line2": "2 41890  34.9482 312.2836 0009694 304.5826  55.3981 15.50433306501596"}}, "geometry": {"type": "Point", "coordinates": [-101.73534443882151, -28.38948948609102]}}, {"type": "Feature", "properties": {"norad_id": 41891, "name": "CYGFM03", "group": "weather", "lat": 24.078778063316047, "lon": 91.10375888252278, "alt_km": 417.1216608757695, "timestamp": "2025-12-23T18:59:31.636938+00:00", "meta": {"OBJECT_NAME": "CYGFM03", "OBJECT_ID": "2016-078H", "EPOCH": "2025-12-23T04:30:19.896192", "MEAN_MOTION": 15.50323541, "ECCENTRICITY": 0.00094582, "INCLINATION": 34.9438, "RA_OF_ASC_NODE": 314.8551, "ARG_OF_PERICENTER": 291.3131, "MEAN_ANOMALY": 68.6581, "EPHEMERIS_TYPE": 0, "CLASSIFICATION_TYPE": "U", "NORAD_CAT_ID": 41891, "ELEMENT_SET_NO": 999, "REV_AT_EPOCH": 50155, "BSTAR": 0.00038012472, "MEAN_MOTION_DOT": 0.00022283, "MEAN_MOTION_DDOT": 0}, "tle": {"line1": "1 41891U 16078H   25357.18773028  .00022283  00000+0  38012-3 0  9996", "line2": "2 41891  34.9438 314.8551 0009458 291.3131  68.6581 15.50323541501558"}}, "geometry": {"type": "Point", "coordinates": [91.10375888252278, 24.078778063316047]}}]}